#cP2022 12 21  0  0  0.00000000      96 ORBIT IGS20 HLM  IGS
## 2241 259200.00000000   900.00000000 59934 0.0000000000000
+   31   G01G02G03G04G05G06G07G08G09G10G11G12G13G14G15G16G17
+        G18G19G20G21G22G23G24G25G26G27G29G30G31G32  0  0  0
+          0  0  0  0  0  0  0  0  0  0  0  0  0  0  0  0  0
+          0  0  0  0  0  0  0  0  0  0  0  0  0  0  0  0  0
+          0  0  0  0  0  0  0  0  0  0  0  0  0  0  0  0  0
++         2  2  2  2  2  2  2  2  2  2  2  2  2  2  2  2  2
++         2  3  3  2  2  3  2  2  2  2  2  2  2  2  0  0  0
++         0  0  0  0  0  0  0  0  0  0  0  0  0  0  0  0  0
++         0  0  0  0  0  0  0  0  0  0  0  0  0  0  0  0  0
++         0  0  0  0  0  0  0  0  0  0  0  0  0  0  0  0  0
%c G  cc GPS ccc cccc cccc cccc cccc ccccc ccccc ccccc ccccc
%c cc cc ccc ccc cccc cccc cccc cccc ccccc ccccc ccccc ccccc
%f  1.2500000  1.025000000  0.00000000000  0.000000000000000
%f  0.0000000  0.000000000  0.00000000000  0.000000000000000
%i    0    0    0    0      0      0      0      0         0
%i    0    0    0    0      0      0      0      0         0
/* RAPID ORBIT COMBINATION FROM WEIGHTED AVERAGE OF:        
/* cod emr esa gfz grg jpl ngs sio usn whu                  
/* REFERENCED TO IGS TIME (IGST) AND TO WEIGHTED MEAN POLE: 
/* PCV:IGS20_2233 OL/AL:FES2014b NONE     Y  ORB:CMB CLK:CMB
*  2022 12 21  5 15  0.00000000
PG01  22397.578679  14624.251549    -87.397991    234.898248  5  4  7  98       
PG02 -23890.440178 -11076.690819  -1774.095658   -631.902727  3  5  6 104       
PG03  12310.217019  13794.066467  18989.704302   -375.114081  7  5  5 101       
PG04  19353.133841   4331.841398  17722.253984    -64.559643  6  6  3 110       
PG05  -6350.073392 -24202.061097  -8899.947607   -108.880346  4  4  5  75       
PG06   7890.089137 -12334.359519  22227.550597    544.242866  5  4  5 109       
PG07  23039.522946   3870.932850 -12652.943389    271.335992  5  6  5 100       
PG08   9720.983842  11940.428210 -21710.562393    -99.667545  5  7  6 112       
PG09  24174.557095  -6005.294806   9206.318815   -250.038250  4  6  4 113       
PG10 -11315.279122  17747.245139 -15838.611820    -17.002379  7  7  7 119       
PG11  -4762.305162 -18777.788278  18195.886976    -61.230494  6  9  8  94       
PG12 -10970.981184 -15606.594519  18251.718795   -318.444083  6  6  7 103       
PG13   -900.847478 -15527.792011 -21683.977725    445.589768  5  6  5 105       
PG14  13283.554397 -15383.324606 -17029.421794    -64.525251  6  6  7  94       
PG15 -11560.988129 -11384.000399 -21497.832219     -2.301170  7  7  5 114       
PG16    773.114748  25719.341694  -5784.570056   -525.774848  6 10  7  93       
PG17  22649.809569 -13423.528299   4274.106093    687.521170  4  6  6  93       
PG18 -21600.463013  -1544.772720 -15472.566901    -67.224460  5  4  8 109       
PG19  15434.106305 -16251.347973  13812.168019    253.329008  9 13 11  31       
PG20   -452.509449 -26378.528321   4006.803108    462.210194  6 12  4  24       
PG21  19856.270652  16264.320244  -7636.103300    153.322756  5  5  7 105       
PG22 -12034.851479  17491.746020  16273.833312    389.070902  3  8  6 107       
PG23 -14560.937233   6355.004263 -21261.750603      0.484586  6  7  7 113       
PG24 -21657.180987 -15132.743959  -4763.171737      6.145347  7  8  6 103       
PG25 -14891.175898  -4688.066480  21214.344802    403.988226  5  6  6 114       
PG26  -4627.591465  24941.330338   7155.496831    238.836758  3  8  8  90       
PG27  -2455.053972  17080.060313 -20297.308527    147.692289  4  7  5 113       
PG29 -23985.073119   2212.289252  11235.756835   -575.411040  3  6  6  81       
PG30  15969.410829  -7203.932618 -19938.775089   -535.019164  6  2  6  92       
PG31  -7025.199289  13623.249395  21505.454788   -203.909597  5  6  3 116       
PG32 -20191.795059  15945.602073   6305.882099   -336.933814  5  5  7  85       
*  2022 12 21  5 30  0.00000000
PG01  22203.106678  14678.268582  -2971.007025    234.893602  6  5  7  99       
PG02 -23875.735862 -11354.051633   1106.304848   -631.900971  3  5  5 111       
PG03  12186.801706  15889.547473  17382.950926   -375.113616  7  5  5  89       
PG04  17546.646268   5429.427754  19226.958495    -64.553080  6  6  4 111       
PG05  -6147.601452 -25057.215409  -6208.376279   -108.881989  4  5  4 107       
PG06  10045.289362 -11047.212758  22040.846165    544.249439  5  4  5  99       
PG07  24098.390203   4748.028294 -10279.850784    271.330976  5  6  5 101       
PG08   7597.339902  13217.810594 -21783.878038    -99.669319  5  7  5 115       
PG09  23262.559570  -5181.509285  11693.834194   -250.032676  4  6  4 105       
PG10 -11467.371874  15791.493756 -17700.690003    -17.003728  6  7  8 124       
PG11  -2890.139603 -17694.381757  19617.228428    -61.237396  6  9  8  98       
PG12 -10677.241288 -17624.788485  16542.995167   -318.448341  6  7  8  85       
PG13   1353.413343 -16371.730261 -21007.438793    445.595796  5  6  4 108       
PG14  13371.059778 -13330.421494 -18627.063518    -64.519338  6  6  7 103       
PG15  -9672.750949 -12834.978135 -21590.024273     -2.298282  7  7  5 116       
PG16    465.313580  26166.348694  -2946.982301   -525.774691  5 10  7  98       
PG17  22985.604953 -13365.697532   1416.800532    687.523608  4  6  6  72       
PG18 -22918.862063  -2532.281450 -13306.222305    -67.237768  4  4  8 121       
PG19  16874.128756 -16667.122863  11448.384545    253.333679  8 12 10  11       
PG20    -89.641818 -25820.018153   6732.260687    462.208046  6 11  6  33       
PG21  18802.778957  15973.600770 -10198.754825    153.322016  5  7  7 102       
PG22 -13636.189736  18040.198450  14213.290459    389.077942  3  8  6  91       
PG23 -14667.626136   3895.423244 -21787.453080      0.485314  6  6  7 114       
PG24 -20946.458242 -15107.577345  -7425.198207      6.129825  7  8  6  92       
PG25 -14852.564810  -7140.816317  20582.001433    403.991434  5  7  6 109       
PG26  -5011.480332  23969.967905   9747.001543    238.837453  4  8  8  99       
PG27  -4432.753274  18084.117866 -19001.910578    147.683459  4  7  5 108       
PG29 -22771.203516   1451.773101  13616.382382   -575.413319  4  6  6  99       
PG30  17820.881582  -5947.236870 -18778.366223   -535.018522  6  2  6 102       
PG31  -9164.677230  12331.132563  21520.806311   -203.910395  6  6  4 105       
PG32 -20800.242005  15990.257397   3516.660966   -336.945561  4  6  7  71       
*  2022 12 21  5 45  0.00000000
PG01  21728.837165  14592.664722  -5804.764238    234.889007  6  6  6  88       
PG02 -23575.669992 -11503.122631   3967.516562   -631.899311  4  4  5 107       
PG03  12167.292245  17787.695161  15475.601255   -375.113185  7  6  6  86       
PG04  15669.955047   6699.211485  20401.923460    -64.546576  6  5  4 106       
PG05  -5958.102228 -25612.986542  -3409.683062   -108.883371  3  5  3  93       
PG06  12231.594744  -9903.942163  21477.539046    544.256037  5  3  5  99       
PG07  24951.793599   5438.703701  -7731.098205    271.325909  5  6  5  78       
PG08   5550.687199  14599.155425 -21483.578426    -99.669365  5  8  5 112       
PG09  22170.546490  -4158.894146  13979.787186   -250.027231  5  6  4 103       
PG10 -11735.525264  13652.587793 -19250.757727    -17.004613  6  7  8 121       
PG11   -840.240351 -16640.566132  20701.604614    -61.244314  5  9  8  88       
PG12 -10494.701609 -19441.807060  14545.211710   -318.452568  5  7  8  89       
PG13   3474.294547 -17294.991366 -19973.780502    445.601473  6  6  3 113       
PG14  13564.766591 -11122.698452 -19902.816289    -64.513348  6  5  6 106       
PG15  -7862.362428 -14371.744270 -21325.188175     -2.295333  7  6  5 117       
PG16    189.594317  26301.761965    -57.405339   -525.774101  5 10  7  65       
PG17  23044.258851 -13162.707781  -1464.664342    687.525904  4  5  7  61       
PG18 -24060.741266  -3325.661689 -10912.465427    -67.250976  3  5  8 110       
PG19  18037.271164 -17031.117476   8882.505726    253.338166  7 11  9  49       
PG20    365.780191 -24987.556147   9343.440954    462.205412  5 11  7  25       
PG21  17469.958604  15637.354867 -12588.485063    153.320743  5  7  7 103       
PG22 -14995.218664  18555.168514  11912.245660    389.085158  3  8  6  87       
PG23 -14909.606848   1408.335801 -21937.922606      0.485975  6  5  7 117       
PG24 -19969.025245 -15006.981769  -9963.836069      6.114292  7  8  7 108       
PG25 -14932.293699  -9495.877972  19587.669941    403.994626  4  7  6 108       
PG26  -5473.590352  22734.665913  12166.848379    238.838143  4  8  8  89       
PG27  -6220.503535  19103.402911 -17381.147367    147.674628  4  7  6 121       
PG29 -21375.898732    501.037812  15762.964635   -575.415310  4  6  6 100       
PG30  19596.660088  -4852.069084 -17294.905712   -535.017901  5  2  6 102       
PG31 -11345.460091  11160.700667  21160.892891   -203.911351  6  6  4 111       
PG32 -21139.888526  15887.673720    666.315109   -336.957320  4  6  7  97       
EOF
